GPS BIIR-2  (PRN 13)    
1 24876U 97035A   22124.48731750  .00000039  00000+0  00000+0 0  9997
2 24876  55.5031 157.3884 0056922  51.4557 309.1176  2.00563514181772
GPS BIIR-4  (PRN 20)    
1 26360U 00025A   22124.60101197 -.00000029  00000+0  00000+0 0  9990
2 26360  54.0250  80.6769 0048301 183.9329 345.4164  2.00576138161098
GPS BIIR-6  (PRN 22)    
1 26605U 00071A   22124.77258194  .00000039  00000+0  00000+0 0  9991
2 26605  55.0862 154.3887 0135280 253.9832 170.8649  2.00562071157342
GPS BIIR-8  (PRN 16)    
1 27663U 03005A   22124.88754083 -.00000014  00000+0  00000+0 0  9990
2 27663  55.5431 274.7895 0126153  40.8942 316.9125  2.00567227141134
GPS BIIR-9  (PRN 21)    
1 27704U 03010A   22124.47531699 -.00000101  00000+0  00000+0 0  9990
2 27704  55.0083  25.0865 0245601 304.8728 333.8181  2.00553977139928
GPS BIIR-11 (PRN 19)    
1 28190U 04009A   22124.95262701 -.00000075  00000+0  00000+0 0  9997
2 28190  56.0292 335.7574 0089978 118.2890  83.2256  2.00561389132770
GPS BIIR-13 (PRN 02)    
1 28474U 04045A   22124.67160358 -.00000100  00000+0  00000+0 0  9995
2 28474  55.3362  25.2003 0207177 278.5496 349.1760  2.00566181128255
GPS BIIRM-1 (PRN 17)    
1 28874U 05038A   22124.63974141 -.00000074  00000+0  00000+0 0  9991
2 28874  56.0975 333.2022 0137326 274.3985  80.5889  2.00579208121654
GPS BIIRM-2 (PRN 31)    
1 29486U 06042A   22124.75029983  .00000009  00000+0  00000+0 0  9992
2 29486  54.7188 211.0112 0103331  21.0870 333.5374  2.00556864114214
GPS BIIRM-3 (PRN 12)    
1 29601U 06052A   22124.20130633 -.00000018  00000+0  00000+0 0  9998
2 29601  55.5490 273.7528 0084604  72.9142 287.9805  2.00577439113224
GPS BIIRM-4 (PRN 15)    
1 32260U 07047A   22124.51640146  .00000035  00000+0  00000+0 0  9995
2 32260  53.3018 142.3636 0138036  61.9349 299.4951  2.00550886106632
GPS BIIRM-5 (PRN 29)    
1 32384U 07062A   22124.74255986 -.00000074  00000+0  00000+0 0  9992
2 32384  56.2150 333.9535 0019385 133.3059 161.1386  2.00559644105335
GPS BIIRM-6 (PRN 07)    
1 32711U 08012A   22122.93583940  .00000017  00000+0  00000+0 0  9991
2 32711  54.4782 210.0293 0161689 230.3138 128.3044  2.00563980103542
GPS BIIRM-8 (PRN 05)    
1 35752U 09043A   22124.68114955 -.00000015  00000+0  00000+0 0  9993
2 35752  55.0399  87.2889 0057607  57.0281 140.9208  2.00559025 93188
GPS BIIF-1  (PRN 25)    
1 36585U 10022A   22124.75729981 -.00000014  00000+0  00000+0 0  9995
2 36585  54.8306 269.2805 0103483  56.6979 312.1714  2.00563142 87410
GPS BIIF-2  (PRN 01)    
1 37753U 11036A   22124.87218837 -.00000095  00000+0  00000+0 0  9994
2 37753  56.5869  30.4005 0116481  50.9594 125.9423  2.00565270 79101
GPS BIIF-3  (PRN 24)    
1 38833U 12053A   22124.61138750  .00000012  00000+0  00000+0 0  9999
2 38833  53.5320 205.1460 0122731  45.9425 315.1264  2.00561323 69265
GPS BIIF-4  (PRN 27)    
1 39166U 13023A   22124.47037153 -.00000071  00000+0  00000+0 0  9992
2 39166  55.7267 329.5985 0103812  37.6379 323.1085  2.00566335 65700
GPS BIIF-5  (PRN 30)    
1 39533U 14008A   22124.46704590  .00000010  00000+0  00000+0 0  9991
2 39533  53.6273 210.6535 0058716 207.1088 152.6401  2.00551289 59506
GPS BIIF-6  (PRN 06)    
1 39741U 14026A   22124.74800170 -.00000095  00000+0  00000+0 0  9998
2 39741  56.5495  29.9311 0027868 307.2184  52.5549  2.00559269 58361
GPS BIIF-7  (PRN 09)    
1 40105U 14045A   22124.83529797  .00000039  00000+0  00000+0 0  9995
2 40105  54.6815 148.5450 0018658 109.6998 250.5510  2.00575083 55905
GPS BIIF-8  (PRN 03)    
1 40294U 14068A   22124.71222577 -.00000009  00000+0  00000+0 0  9990
2 40294  55.7842  89.6621 0039281  52.3689 307.9560  2.00568578 55034
GPS BIIF-9  (PRN 26)    
1 40534U 15013A   22124.84671070 -.00000014  00000+0  00000+0 0  9994
2 40534  53.7322 266.5007 0068554  20.6687 339.5818  2.00555228 51656
GPS BIIF-10 (PRN 08)    
1 40730U 15033A   22124.51228888 -.00000071  00000+0  00000+0 0  9996
2 40730  55.2263 328.4468 0074157   7.4343 352.6964  2.00554384 49817
GPS BIIF-11 (PRN 10)    
1 41019U 15062A   22124.55872504 -.00000011  00000+0  00000+0 0  9997
2 41019  55.7733  89.5101 0077327 218.5702 140.8462  2.00562973 47653
GPS BIIF-12 (PRN 32)    
1 41328U 16007A   22124.65240903  .00000039  00000+0  00000+0 0  9992
2 41328  54.9002 149.2137 0061110 230.1089 129.4026  2.00572723 45662
GPS BIII-1  (PRN 04)    
1 43873U 18109A   22124.28964662  .00000039  00000+0  00000+0 0  9998
2 43873  55.0802 151.6373 0018525 196.9266 156.8541  2.00569533 24888
GPS BIII-2  (PRN 18)    
1 44506U 19056A   22124.68449137 -.00000096  00000+0  00000+0 0  9997
2 44506  55.6592  30.7891 0022521 180.2032   2.1075  2.00572186 19892
GPS BIII-3  (PRN 23)    
1 45854U 20041A   22124.87745431 -.00000011  00000+0  00000+0 0  9994
2 45854  55.4911  88.0504 0020781 178.4226  79.6798  2.00559790 13867
GPS BIII-4  (PRN 14)    
1 46826U 20078A   22124.61970475 -.00000016  00000+0  00000+0 0  9999
2 46826  54.5973 271.8726 0018115 183.5570 222.3777  2.00565564 11330
GPS BIII-5  (PRN 11)    
1 48859U 21054A   22124.94438424 -.00000095  00000+0  00000+0 0  9998
2 48859  55.1640  32.8004 0003449 204.1616 258.4144  2.00576221  6586
